{
  "type": "FeatureCollection",
  "features": [
    {
      "type": "Feature",
      "properties": {
        "norad_id": 25590,
        "name": "COSMOS 2361",
        "group": "musson",
        "lat": -28.212875282889797,
        "lon": -17.138925960831724,
        "alt_km": 981.3219203119033,
        "timestamp": "2025-12-09T05:43:20.995440+00:00",
        "meta_object_name": "COSMOS 2361",
        "meta_object_id": "1998-076A",
        "meta_epoch": "2025-12-08T18:27:48.199104",
        "meta_mean_motion": 13.73216876,
        "meta_eccentricity": 0.0030064,
        "meta_inclination": 82.9338,
        "meta_ra_of_asc_node": 347.0233,
        "meta_arg_of_pericenter": 277.1431,
        "meta_mean_anomaly": 256.3546,
        "meta_ephemeris_type": 0,
        "meta_classification_type": "U",
        "meta_norad_cat_id": 25590,
        "meta_element_set_no": 999,
        "meta_rev_at_epoch": 35056,
        "meta_bstar": 8.985e-05,
        "meta_mean_motion_dot": 9.8e-07,
        "meta_mean_motion_ddot": 0,
        "tle_line1": "1 25590U 98076A   25342.76930786  .00000098  00000+0  89850-4 0  9993",
        "tle_line2": "2 25590  82.9338 347.0233 0030064 277.1431 256.3546 13.73216876350560"
      },
      "geometry": {
        "type": "Point",
        "coordinates": [
          -17.138925960831724,
          -28.212875282889797
        ]
      }
    },
    {
      "type": "Feature",
      "properties": {
        "norad_id": 26818,
        "name": "COSMOS 2378",
        "group": "musson",
        "lat": 32.01070961057456,
        "lon": 6.772502450751874,
        "alt_km": 1006.5124235801022,
        "timestamp": "2025-12-09T05:43:20.995462+00:00",
        "meta_object_name": "COSMOS 2378",
        "meta_object_id": "2001-023A",
        "meta_epoch": "2025-12-08T19:55:11.034048",
        "meta_mean_motion": 13.74141511,
        "meta_eccentricity": 0.0032184,
        "meta_inclination": 82.9273,
        "meta_ra_of_asc_node": 2.6241,
        "meta_arg_of_pericenter": 215.9787,
        "meta_mean_anomaly": 316.9629,
        "meta_ephemeris_type": 0,
        "meta_classification_type": "U",
        "meta_norad_cat_id": 26818,
        "meta_element_set_no": 999,
        "meta_rev_at_epoch": 22869,
        "meta_bstar": 6.0047e-05,
        "meta_mean_motion_dot": 7.2e-07,
        "meta_mean_motion_ddot": 0,
        "tle_line1": "1 26818U 01023A   25342.82998882  .00000072  00000+0  60047-4 0  9990",
        "tle_line2": "2 26818  82.9273   2.6241 0032184 215.9787 316.9629 13.74141511228691"
      },
      "geometry": {
        "type": "Point",
        "coordinates": [
          6.772502450751874,
          32.01070961057456
        ]
      }
    },
    {
      "type": "Feature",
      "properties": {
        "norad_id": 27436,
        "name": "COSMOS 2389",
        "group": "musson",
        "lat": -46.38266693744803,
        "lon": 137.03891851297357,
        "alt_km": 1020.0614078871567,
        "timestamp": "2025-12-09T05:43:20.995477+00:00",
        "meta_object_name": "COSMOS 2389",
        "meta_object_id": "2002-026A",
        "meta_epoch": "2025-12-08T20:12:15.604128",
        "meta_mean_motion": 13.75154077,
        "meta_eccentricity": 0.0047706,
        "meta_inclination": 82.9499,
        "meta_ra_of_asc_node": 309.8704,
        "meta_arg_of_pericenter": 71.3304,
        "meta_mean_anomaly": 352.9753,
        "meta_ephemeris_type": 0,
        "meta_classification_type": "U",
        "meta_norad_cat_id": 27436,
        "meta_element_set_no": 999,
        "meta_rev_at_epoch": 18095,
        "meta_bstar": 9.9818e-05,
        "meta_mean_motion_dot": 1.12e-06,
        "meta_mean_motion_ddot": 0,
        "tle_line1": "1 27436U 02026A   25342.84184727  .00000112  00000+0  99818-4 0  9991",
        "tle_line2": "2 27436  82.9499 309.8704 0047706  71.3304 352.9753 13.75154077180955"
      },
      "geometry": {
        "type": "Point",
        "coordinates": [
          137.03891851297357,
          -46.38266693744803
        ]
      }
    },
    {
      "type": "Feature",
      "properties": {
        "norad_id": 27818,
        "name": "COSMOS 2398",
        "group": "musson",
        "lat": -34.23787590763514,
        "lon": 100.11070908670676,
        "alt_km": 998.4807833545692,
        "timestamp": "2025-12-09T05:43:20.995489+00:00",
        "meta_object_name": "COSMOS 2398",
        "meta_object_id": "2003-023A",
        "meta_epoch": "2025-12-08T20:11:46.742208",
        "meta_mean_motion": 13.72385122,
        "meta_eccentricity": 0.0032442,
        "meta_inclination": 82.9482,
        "meta_ra_of_asc_node": 275.5709,
        "meta_arg_of_pericenter": 122.2388,
        "meta_mean_anomaly": 291.8896,
        "meta_ephemeris_type": 0,
        "meta_classification_type": "U",
        "meta_norad_cat_id": 27818,
        "meta_element_set_no": 999,
        "meta_rev_at_epoch": 12763,
        "meta_bstar": 9.8785e-05,
        "meta_mean_motion_dot": 1.06e-06,
        "meta_mean_motion_ddot": 0,
        "tle_line1": "1 27818U 03023A   25342.84151322  .00000106  00000+0  98785-4 0  9993",
        "tle_line2": "2 27818  82.9482 275.5709 0032442 122.2388 291.8896 13.72385122127633"
      },
      "geometry": {
        "type": "Point",
        "coordinates": [
          100.11070908670676,
          -34.23787590763514
        ]
      }
    },
    {
      "type": "Feature",
      "properties": {
        "norad_id": 28380,
        "name": "COSMOS 2407",
        "group": "musson",
        "lat": -0.17986722660140886,
        "lon": -144.53733523995325,
        "alt_km": 966.9458678661294,
        "timestamp": "2025-12-09T05:43:20.995500+00:00",
        "meta_object_name": "COSMOS 2407",
        "meta_object_id": "2004-028A",
        "meta_epoch": "2025-12-08T16:00:58.962240",
        "meta_mean_motion": 13.76313059,
        "meta_eccentricity": 0.0040444,
        "meta_inclination": 82.9612,
        "meta_ra_of_asc_node": 215.9077,
        "meta_arg_of_pericenter": 65.8914,
        "meta_mean_anomaly": 346.471,
        "meta_ephemeris_type": 0,
        "meta_classification_type": "U",
        "meta_norad_cat_id": 28380,
        "meta_element_set_no": 999,
        "meta_rev_at_epoch": 7367,
        "meta_bstar": 9.5579e-05,
        "meta_mean_motion_dot": 1.09e-06,
        "meta_mean_motion_ddot": 0,
        "tle_line1": "1 28380U 04028A   25342.66734910  .00000109  00000+0  95579-4 0  9995",
        "tle_line2": "2 28380  82.9612 215.9077 0040444  65.8914 346.4710 13.76313059 73677"
      },
      "geometry": {
        "type": "Point",
        "coordinates": [
          -144.53733523995325,
          -0.17986722660140886
        ]
      }
    },
    {
      "type": "Feature",
      "properties": {
        "norad_id": 28521,
        "name": "COSMOS 2414",
        "group": "musson",
        "lat": 61.4665435330903,
        "lon": -5.848862016264461,
        "alt_km": 904.7037344679138,
        "timestamp": "2025-12-09T05:43:20.995512+00:00",
        "meta_object_name": "COSMOS 2414",
        "meta_object_id": "2005-002A",
        "meta_epoch": "2025-12-08T20:30:22.924800",
        "meta_mean_motion": 13.87902268,
        "meta_eccentricity": 0.0040669,
        "meta_inclination": 82.9496,
        "meta_ra_of_asc_node": 187.5979,
        "meta_arg_of_pericenter": 150.5878,
        "meta_mean_anomaly": 209.7586,
        "meta_ephemeris_type": 0,
        "meta_classification_type": "U",
        "meta_norad_cat_id": 28521,
        "meta_element_set_no": 999,
        "meta_rev_at_epoch": 5741,
        "meta_bstar": 8.5087e-05,
        "meta_mean_motion_dot": 1.18e-06,
        "meta_mean_motion_ddot": 0,
        "tle_line1": "1 28521U 05002A   25342.85443200  .00000118  00000+0  85087-4 0  9998",
        "tle_line2": "2 28521  82.9496 187.5979 0040669 150.5878 209.7586 13.87902268 57413"
      },
      "geometry": {
        "type": "Point",
        "coordinates": [
          -5.848862016264461,
          61.4665435330903
        ]
      }
    },
    {
      "type": "Feature",
      "properties": {
        "norad_id": 32052,
        "name": "COSMOS 2429",
        "group": "musson",
        "lat": 51.88803246853242,
        "lon": -5.073013365913984,
        "alt_km": 947.3997277651533,
        "timestamp": "2025-12-09T05:43:20.995523+00:00",
        "meta_object_name": "COSMOS 2429",
        "meta_object_id": "2007-038A",
        "meta_epoch": "2025-12-08T17:14:47.181696",
        "meta_mean_motion": 13.75148788,
        "meta_eccentricity": 0.0039433,
        "meta_inclination": 82.9803,
        "meta_ra_of_asc_node": 346.2734,
        "meta_arg_of_pericenter": 48.8081,
        "meta_mean_anomaly": 311.6464,
        "meta_ephemeris_type": 0,
        "meta_classification_type": "U",
        "meta_norad_cat_id": 32052,
        "meta_element_set_no": 999,
        "meta_rev_at_epoch": 91547,
        "meta_bstar": 7.0707e-05,
        "meta_mean_motion_dot": 8.3e-07,
        "meta_mean_motion_ddot": 0,
        "tle_line1": "1 32052U 07038A   25342.71860164  .00000083  00000+0  70707-4 0  9994",
        "tle_line2": "2 32052  82.9803 346.2734 0039433  48.8081 311.6464 13.75148788915477"
      },
      "geometry": {
        "type": "Point",
        "coordinates": [
          -5.073013365913984,
          51.88803246853242
        ]
      }
    },
    {
      "type": "Feature",
      "properties": {
        "norad_id": 35635,
        "name": "COSMOS 2454",
        "group": "musson",
        "lat": 36.763993894714204,
        "lon": -14.001357287361083,
        "alt_km": 918.7035424449405,
        "timestamp": "2025-12-09T05:43:20.995534+00:00",
        "meta_object_name": "COSMOS 2454",
        "meta_object_id": "2009-039A",
        "meta_epoch": "2025-12-08T18:43:22.690272",
        "meta_mean_motion": 13.8992788,
        "meta_eccentricity": 0.0020481,
        "meta_inclination": 82.9556,
        "meta_ra_of_asc_node": 171.6466,
        "meta_arg_of_pericenter": 84.3022,
        "meta_mean_anomaly": 286.3458,
        "meta_ephemeris_type": 0,
        "meta_classification_type": "U",
        "meta_norad_cat_id": 35635,
        "meta_element_set_no": 999,
        "meta_rev_at_epoch": 83095,
        "meta_bstar": 6.8598e-05,
        "meta_mean_motion_dot": 1.01e-06,
        "meta_mean_motion_ddot": 0,
        "tle_line1": "1 35635U 09039A   25342.78012373  .00000101  00000+0  68598-4 0  9991",
        "tle_line2": "2 35635  82.9556 171.6466 0020481  84.3022 286.3458 13.89927880830950"
      },
      "geometry": {
        "type": "Point",
        "coordinates": [
          -14.001357287361083,
          36.763993894714204
        ]
      }
    },
    {
      "type": "Feature",
      "properties": {
        "norad_id": 36519,
        "name": "COSMOS 2463",
        "group": "musson",
        "lat": 52.68275016814622,
        "lon": 38.61262921541998,
        "alt_km": 999.5664554841842,
        "timestamp": "2025-12-09T05:43:20.995545+00:00",
        "meta_object_name": "COSMOS 2463",
        "meta_object_id": "2010-017A",
        "meta_epoch": "2025-12-08T16:01:01.162848",
        "meta_mean_motion": 13.71648756,
        "meta_eccentricity": 0.0034885,
        "meta_inclination": 82.9616,
        "meta_ra_of_asc_node": 29.7051,
        "meta_arg_of_pericenter": 299.7752,
        "meta_mean_anomaly": 174.897,
        "meta_ephemeris_type": 0,
        "meta_classification_type": "U",
        "meta_norad_cat_id": 36519,
        "meta_element_set_no": 999,
        "meta_rev_at_epoch": 78181,
        "meta_bstar": 9.0474e-05,
        "meta_mean_motion_dot": 9.7e-07,
        "meta_mean_motion_ddot": 0,
        "tle_line1": "1 36519U 10017A   25342.66737457  .00000097  00000+0  90474-4 0  9997",
        "tle_line2": "2 36519  82.9616  29.7051 0034885 299.7752 174.8970 13.71648756781810"
      },
      "geometry": {
        "type": "Point",
        "coordinates": [
          38.61262921541998,
          52.68275016814622
        ]
      }
    }
  ]
}